{
"type": "FeatureCollection",
"name": "roads_sample",
"crs": { "type": "name", "properties": { "name": "urn:ogc:def:crs:EPSG::32645" } },
"features": [
{ "type": "Feature", "properties": { "name": "Teesta Valley Road (NH310 alignment)" }, "geometry": { "type": "LineString", "coordinates": [ [ 662940.209997176309116, 3054980.106601205188781 ], [ 663061.201397462049499, 3054880.106601205188781 ], [ 663151.966005619382486, 3054780.106601205188781 ], [ 663189.828466731356457, 3054680.106601205188781 ], [ 663165.329755290527828, 3054580.106601205188781 ], [ 663084.590285279671662, 3054480.106601205188781 ], [ 662967.780871904105879, 3054380.106601205188781 ], [ 662844.08353841828648, 3054280.106601205188781 ], [ 662744.401089296559803, 3054180.106601205188781 ], [ 662693.636787591851316, 3054080.106601205188781 ], [ 662704.472873459453695, 3053980.106601205188781 ], [ 662774.20221139874775, 3053880.106601205188781 ], [ 662885.404602964408696, 3053780.106601205188781 ], [ 663010.298804480582476, 3053680.106601205188781 ], [ 663117.683002774138004, 3053580.106601205188781 ], [ 663180.729837949969806, 3053480.106601205188781 ], [ 663183.68857419770211, 3053380.106601205188781 ], [ 663125.820042408653535, 3053280.106601205188781 ], [ 663021.58130380383227, 3053180.106601205188781 ], [ 662897.013900807825848, 3053080.106601205188781 ] ] } },
{ "type": "Feature", "properties": { "name": "Lachen Ridge Track" }, "geometry": { "type": "LineString", "coordinates": [ [ 661890.209997176309116, 3054860.106601205188781 ], [ 663790.209997176309116, 3054860.106601205188781 ] ] } }
]
}
