{
"type": "FeatureCollection",
"name": "villages_sample",
"crs": { "type": "name", "properties": { "name": "urn:ogc:def:crs:EPSG::32645" } },
"features": [
{ "type": "Feature", "properties": { "name": "Chungthang Bazaar", "population": 640 }, "geometry": { "type": "Polygon", "coordinates": [ [ [ 662745.0, 3054548.0 ], [ 662743.125920445891097, 3054533.764952519442886 ], [ 662737.631397208198905, 3054520.5 ], [ 662728.890872965217568, 3054509.109127034898847 ], [ 662717.5, 3054500.368602791801095 ], [ 662704.235047480673529, 3054494.874079553876072 ], [ 662690.0, 3054493.0 ], [ 662675.764952519326471, 3054494.874079553876072 ], [ 662662.5, 3054500.368602791801095 ], [ 662651.109127034782432, 3054509.109127034898847 ], [ 662642.368602791801095, 3054520.5 ], [ 662636.874079554108903, 3054533.764952519442886 ], [ 662635.0, 3054548.0 ], [ 662636.874079554108903, 3054562.235047480557114 ], [ 662642.368602791801095, 3054575.5 ], [ 662651.109127034782432, 3054586.890872965101153 ], [ 662662.5, 3054595.631397208198905 ], [ 662675.764952519326471, 3054601.125920446123928 ], [ 662690.0, 3054603.0 ], [ 662704.235047480673529, 3054601.125920446123928 ], [ 662717.5, 3054595.631397208198905 ], [ 662728.890872965217568, 3054586.890872965101153 ], [ 662737.631397208198905, 3054575.5 ], [ 662743.125920445891097, 3054562.235047480557114 ], [ 662745.0, 3054548.0 ] ] ] } },
{ "type": "Feature", "properties": { "name": "Tung", "population": 410 }, "geometry": { "type": "Polygon", "coordinates": [ [ [ 662781.0, 3054153.0 ], [ 662779.125920445891097, 3054138.764952519442886 ], [ 662773.631397208198905, 3054125.5 ], [ 662764.890872965217568, 3054114.109127034898847 ], [ 662753.5, 3054105.368602791801095 ], [ 662740.235047480673529, 3054099.874079553876072 ], [ 662726.0, 3054098.0 ], [ 662711.764952519326471, 3054099.874079553876072 ], [ 662698.5, 3054105.368602791801095 ], [ 662687.109127034782432, 3054114.109127034898847 ], [ 662678.368602791801095, 3054125.5 ], [ 662672.874079554108903, 3054138.764952519442886 ], [ 662671.0, 3054153.0 ], [ 662672.874079554108903, 3054167.235047480557114 ], [ 662678.368602791801095, 3054180.5 ], [ 662687.109127034782432, 3054191.890872965101153 ], [ 662698.5, 3054200.631397208198905 ], [ 662711.764952519326471, 3054206.125920446123928 ], [ 662726.0, 3054208.0 ], [ 662740.235047480673529, 3054206.125920446123928 ], [ 662753.5, 3054200.631397208198905 ], [ 662764.890872965217568, 3054191.890872965101153 ], [ 662773.631397208198905, 3054180.5 ], [ 662779.125920445891097, 3054167.235047480557114 ], [ 662781.0, 3054153.0 ] ] ] } },
{ "type": "Feature", "properties": { "name": "Sangkalang", "population": 275 }, "geometry": { "type": "Polygon", "coordinates": [ [ [ 663685.209997176309116, 3053280.106601205188781 ], [ 663683.676659359363839, 3053268.459744175430387 ], [ 663679.181140346569009, 3053257.606601205188781 ], [ 663672.029802329721861, 3053248.286796052008867 ], [ 663662.709997176309116, 3053241.135458034928888 ], [ 663651.856854205951095, 3053236.639939022250473 ], [ 663640.209997176309116, 3053235.106601205188781 ], [ 663628.563140146667138, 3053236.639939022250473 ], [ 663617.709997176309116, 3053241.135458034928888 ], [ 663608.390192022896372, 3053248.286796052008867 ], [ 663601.238854006049223, 3053257.606601205188781 ], [ 663596.743334993254393, 3053268.459744175430387 ], [ 663595.209997176309116, 3053280.106601205188781 ], [ 663596.743334993254393, 3053291.753458234947175 ], [ 663601.238854006049223, 3053302.606601205188781 ], [ 663608.390192022896372, 3053311.926406358368695 ], [ 663617.709997176309116, 3053319.077744375448674 ], [ 663628.563140146667138, 3053323.573263388127089 ], [ 663640.209997176309116, 3053325.106601205188781 ], [ 663651.856854205951095, 3053323.573263388127089 ], [ 663662.709997176309116, 3053319.077744375448674 ], [ 663672.029802329721861, 3053311.926406358368695 ], [ 663679.181140346569009, 3053302.606601205188781 ], [ 663683.676659359363839, 3053291.753458234947175 ], [ 663685.209997176309116, 3053280.106601205188781 ] ] ] } }
]
}
